[
    {
        "Altitude(m)": 564598.5666359141,
        "Argument of Periapsis(deg)": 0.019868973332140504,
        "Eccentricity": 0.0,
        "Inclination(deg)": 53.0,
        "Latitude(deg)": -35.3163276317002,
        "Longitude(deg)": 70.54990804967048,
        "Mean Anomaly(deg)": -46.08882139726724,
        "RAAN(deg)": 204.97043010558406,
        "Satellite Name": "Starlink Shell 1 919",
        "Satellite Number": 919,
        "Semi-Major Axis(m)": 6931778.249405717,
        "Time(s)": 570
    },
    {
        "Altitude(m)": 564425.8912410251,
        "Argument of Periapsis(deg)": 0.02021755181165174,
        "Eccentricity": 0.0,
        "Inclination(deg)": 53.0,
        "Latitude(deg)": -34.89031589403047,
        "Longitude(deg)": 71.06881174356057,
        "Mean Anomaly(deg)": -45.46199019371057,
        "RAAN(deg)": 204.96991133550657,
        "Satellite Name": "Starlink Shell 1 919",
        "Satellite Number": 919,
        "Semi-Major Axis(m)": 6931778.249405717,
        "Time(s)": 580
    },
    {
        "Altitude(m)": 564252.6449774951,
        "Argument of Periapsis(deg)": 0.020566130291162974,
        "Eccentricity": 0.0,
        "Inclination(deg)": 53.0,
        "Latitude(deg)": -34.46170761490636,
        "Longitude(deg)": 71.58196522896323,
        "Mean Anomaly(deg)": -44.83515899015382,
        "RAAN(deg)": 204.9693925654291,
        "Satellite Name": "Starlink Shell 1 919",
        "Satellite Number": 919,
        "Semi-Major Axis(m)": 6931778.249405717,
        "Time(s)": 590
    },
    {
        "Altitude(m)": 564078.8941039625,
        "Argument of Periapsis(deg)": 0.020914708770674213,
        "Eccentricity": 0.0,
        "Inclination(deg)": 53.0,
        "Latitude(deg)": -34.030568300461184,
        "Longitude(deg)": 72.0894842922945,
        "Mean Anomaly(deg)": -44.208327786597074,
        "RAAN(deg)": 204.9688737953516,
        "Satellite Name": "Starlink Shell 1 919",
        "Satellite Number": 919,
        "Semi-Major Axis(m)": 6931778.249405717,
        "Time(s)": 600
    },
    {
        "Altitude(m)": 563904.7049589002,
        "Argument of Periapsis(deg)": 0.021263287250185448,
        "Eccentricity": 0.0,
        "Inclination(deg)": 53.0,
        "Latitude(deg)": -33.59696198306168,
        "Longitude(deg)": 72.59148386536108,
        "Mean Anomaly(deg)": -43.581496583040376,
        "RAAN(deg)": 204.96835502527415,
        "Satellite Name": "Starlink Shell 1 919",
        "Satellite Number": 919,
        "Semi-Major Axis(m)": 6931778.249405717,
        "Time(s)": 610
    },
    {
        "Altitude(m)": 563730.1439309611,
        "Argument of Periapsis(deg)": 0.021611865729696686,
        "Eccentricity": 0.0,
        "Inclination(deg)": 53.0,
        "Latitude(deg)": -33.160951253256414,
        "Longitude(deg)": 73.08807845904381,
        "Mean Anomaly(deg)": -42.95466537948363,
        "RAAN(deg)": 204.96783625519666,
        "Satellite Name": "Starlink Shell 1 919",
        "Satellite Number": 919,
        "Semi-Major Axis(m)": 6931778.249405717,
        "Time(s)": 620
    },
    {
        "Altitude(m)": 563555.2774292941,
        "Argument of Periapsis(deg)": 0.02196044420920792,
        "Eccentricity": 0.0,
        "Inclination(deg)": 53.0,
        "Latitude(deg)": -32.72259729197632,
        "Longitude(deg)": 73.57938092367148,
        "Mean Anomaly(deg)": -42.32783417592699,
        "RAAN(deg)": 204.9673174851192,
        "Satellite Name": "Starlink Shell 1 919",
        "Satellite Number": 919,
        "Semi-Major Axis(m)": 6931778.249405717,
        "Time(s)": 630
    },
    {
        "Altitude(m)": 563380.1718538542,
        "Argument of Periapsis(deg)": 0.02230902268871916,
        "Eccentricity": 0.0,
        "Inclination(deg)": 53.0,
        "Latitude(deg)": -32.281959902888374,
        "Longitude(deg)": 74.06550373803155,
        "Mean Anomaly(deg)": -41.70100297237032,
        "RAAN(deg)": 204.9667987150417,
        "Satellite Name": "Starlink Shell 1 919",
        "Satellite Number": 919,
        "Semi-Major Axis(m)": 6931778.249405717,
        "Time(s)": 640
    },
    {
        "Altitude(m)": 563204.8935656903,
        "Argument of Periapsis(deg)": 0.022657601168230398,
        "Eccentricity": 0.0,
        "Inclination(deg)": 53.0,
        "Latitude(deg)": -31.839097544821144,
        "Longitude(deg)": 74.54655778365236,
        "Mean Anomaly(deg)": -41.07417176881357,
        "RAAN(deg)": 204.96627994496427,
        "Satellite Name": "Starlink Shell 1 919",
        "Satellite Number": 919,
        "Semi-Major Axis(m)": 6931778.249405717,
        "Time(s)": 650
    },
    {
        "Altitude(m)": 563029.5088572397,
        "Argument of Periapsis(deg)": 0.023006179647741636,
        "Eccentricity": 0.0,
        "Inclination(deg)": 53.0,
        "Latitude(deg)": -31.39406736418013,
        "Longitude(deg)": 75.0226528063428,
        "Mean Anomaly(deg)": -40.4473405652568,
        "RAAN(deg)": 204.9657611748868,
        "Satellite Name": "Starlink Shell 1 919",
        "Satellite Number": 919,
        "Semi-Major Axis(m)": 6931778.249405717,
        "Time(s)": 660
    },
    {
        "Altitude(m)": 562854.0839226485,
        "Argument of Periapsis(deg)": 0.023354758127252868,
        "Eccentricity": 0.0,
        "Inclination(deg)": 53.0,
        "Latitude(deg)": -30.946925227283806,
        "Longitude(deg)": 75.49389788360287,
        "Mean Anomaly(deg)": -39.820509361700026,
        "RAAN(deg)": 204.96524240480932,
        "Satellite Name": "Starlink Shell 1 919",
        "Satellite Number": 919,
        "Semi-Major Axis(m)": 6931778.249405717,
        "Time(s)": 670
    },
    {
        "Altitude(m)": 562678.6848281315,
        "Argument of Periapsis(deg)": 0.023703336606764106,
        "Eccentricity": 0.0,
        "Inclination(deg)": 53.0,
        "Latitude(deg)": -30.497725752558498,
        "Longitude(deg)": 75.96040038463458,
        "Mean Anomaly(deg)": -39.193678158143385,
        "RAAN(deg)": 204.96472363473185,
        "Satellite Name": "Starlink Shell 1 919",
        "Satellite Number": 919,
        "Semi-Major Axis(m)": 6931778.249405717,
        "Time(s)": 680
    },
    {
        "Altitude(m)": 562503.3774823506,
        "Argument of Periapsis(deg)": 0.024051915086275345,
        "Eccentricity": 0.0,
        "Inclination(deg)": 53.0,
        "Latitude(deg)": -30.046522342532292,
        "Longitude(deg)": 76.42226644832004,
        "Mean Anomaly(deg)": -38.56684695458674,
        "RAAN(deg)": 204.9642048646544,
        "Satellite Name": "Starlink Shell 1 919",
        "Satellite Number": 919,
        "Semi-Major Axis(m)": 6931778.249405717,
        "Time(s)": 690
    },
    {
        "Altitude(m)": 562328.2276069039,
        "Argument of Periapsis(deg)": 0.024400493565786583,
        "Eccentricity": 0.0,
        "Inclination(deg)": 53.0,
        "Latitude(deg)": -29.593367215579743,
        "Longitude(deg)": 76.8796014659342,
        "Mean Anomaly(deg)": -37.94001575102996,
        "RAAN(deg)": 204.9636860945769,
        "Satellite Name": "Starlink Shell 1 919",
        "Satellite Number": 919,
        "Semi-Major Axis(m)": 6931778.249405717,
        "Time(s)": 700
    },
    {
        "Altitude(m)": 562153.3007068428,
        "Argument of Periapsis(deg)": 0.024749072045297815,
        "Eccentricity": 0.0,
        "Inclination(deg)": 53.0,
        "Latitude(deg)": -29.138311437372714,
        "Longitude(deg)": 77.33250905538088,
        "Mean Anomaly(deg)": -37.31318454747319,
        "RAAN(deg)": 204.96316732449944,
        "Satellite Name": "Starlink Shell 1 919",
        "Satellite Number": 919,
        "Semi-Major Axis(m)": 6931778.249405717,
        "Time(s)": 710
    },
    {
        "Altitude(m)": 561978.6620413217,
        "Argument of Periapsis(deg)": 0.025097650524809053,
        "Eccentricity": 0.0,
        "Inclination(deg)": 53.0,
        "Latitude(deg)": -28.681404951995233,
        "Longitude(deg)": 77.7810915523752,
        "Mean Anomaly(deg)": -36.686353343916444,
        "RAAN(deg)": 204.96264855442195,
        "Satellite Name": "Starlink Shell 1 919",
        "Satellite Number": 919,
        "Semi-Major Axis(m)": 6931778.249405717,
        "Time(s)": 720
    },
    {
        "Altitude(m)": 561804.3765943171,
        "Argument of Periapsis(deg)": 0.02544622900432029,
        "Eccentricity": 0.0,
        "Inclination(deg)": 53.0,
        "Latitude(deg)": -28.222696612690306,
        "Longitude(deg)": 78.22545050539436,
        "Mean Anomaly(deg)": -36.059522140359775,
        "RAAN(deg)": 204.96212978434448,
        "Satellite Name": "Starlink Shell 1 919",
        "Satellite Number": 919,
        "Semi-Major Axis(m)": 6931778.249405717,
        "Time(s)": 730
    },
    {
        "Altitude(m)": 561630.5090454859,
        "Argument of Periapsis(deg)": 0.02579480748383153,
        "Eccentricity": 0.0,
        "Inclination(deg)": 53.0,
        "Latitude(deg)": -27.762234212207787,
        "Longitude(deg)": 78.66568566124074,
        "Mean Anomaly(deg)": -35.43269093680313,
        "RAAN(deg)": 204.961611014267,
        "Satellite Name": "Starlink Shell 1 919",
        "Satellite Number": 919,
        "Semi-Major Axis(m)": 6931778.249405717,
        "Time(s)": 740
    },
    {
        "Altitude(m)": 561457.1237411621,
        "Argument of Periapsis(deg)": 0.026143385963342765,
        "Eccentricity": 0.0,
        "Inclination(deg)": 53.0,
        "Latitude(deg)": -27.30006451272677,
        "Longitude(deg)": 79.1018954666894,
        "Mean Anomaly(deg)": -34.805859733246386,
        "RAAN(deg)": 204.96109224418953,
        "Satellite Name": "Starlink Shell 1 919",
        "Satellite Number": 919,
        "Semi-Major Axis(m)": 6931778.249405717,
        "Time(s)": 750
    }
]